start=new Date('2021-12-30T00:00:00.000Z').valueOf();
sats=[{"RA_OF_ASC_NODE":"355.3453","LAUNCH_DATE":"2020-10-24","SITE":"AFETR","BSTAR":"0.00012124000000","CENTER_NAME":"EARTH","PERIOD":"95.592","REV_AT_EPOCH":"6589","MEAN_ELEMENT_THEORY":"SGP4","TLE_LINE1":"1 46789U 20074BC  21363.50998732  .00001525  00000-0  12124-3 0  9991","OBJECT_ID":"2020-074BC","CLASSIFICATION_TYPE":"U","APOAPSIS":"548.491","INCLINATION":"53.0554","SEMIMAJOR_AXIS":"6925.338","MEAN_MOTION_DDOT":"0.0000000000000","COUNTRY_CODE":"US","ELEMENT_SET_NO":"999","EPHEMERIS_TYPE":"0","MEAN_MOTION":"15.06403308","TIME_SYSTEM":"UTC","MEAN_MOTION_DOT":"0.00001525","RCS_SIZE":"LARGE","NORAD_CAT_ID":"46789","ARG_OF_PERICENTER":"56.5409","DECAY_DATE":null,"MEAN_ANOMALY":"303.5757","OBJECT_NAME":"STARLINK-1930","EPOCH":"2021-12-29T12:14:22.904448","GP_ID":"192714417","ECCENTRICITY":"0.00018590","PERIAPSIS":"545.916","FILE":"3254971","TLE_LINE2":"2 46789  53.0554 355.3453 0001859  56.5409 303.5757 15.06403308 65896","REF_FRAME":"TEME","OBJECT_TYPE":"PAYLOAD"},{"INCLINATION":"53.0555","SEMIMAJOR_AXIS":"6925.349","CLASSIFICATION_TYPE":"U","APOAPSIS":"548.421","LAUNCH_DATE":"2020-10-24","SITE":"AFETR","RA_OF_ASC_NODE":"353.9520","REV_AT_EPOCH":"6593","PERIOD":"95.592","MEAN_ELEMENT_THEORY":"SGP4","TLE_LINE1":"1 46790U 20074BD  21363.82056284  .00004757  00000-0  33801-3 0  9990","OBJECT_ID":"2020-074BD","BSTAR":"0.00033801000000","CENTER_NAME":"EARTH","PERIAPSIS":"546.008","GP_ID":"192744206","EPOCH":"2021-12-29T19:41:36.629376","ECCENTRICITY":"0.00017420","REF_FRAME":"TEME","OBJECT_TYPE":"PAYLOAD","FILE":"3255236","TLE_LINE2":"2 46790  53.0555 353.9520 0001742  58.7462 301.3698 15.06399810 65939","MEAN_MOTION":"15.06399810","EPHEMERIS_TYPE":"0","MEAN_MOTION_DOT":"0.00004757","TIME_SYSTEM":"UTC","RCS_SIZE":"LARGE","NORAD_CAT_ID":"46790","MEAN_MOTION_DDOT":"0.0000000000000","COUNTRY_CODE":"US","ELEMENT_SET_NO":"999","OBJECT_NAME":"STARLINK-1931","ARG_OF_PERICENTER":"58.7462","DECAY_DATE":null,"MEAN_ANOMALY":"301.3698"},{"APOAPSIS":"548.365","CLASSIFICATION_TYPE":"U","INCLINATION":"53.0539","SEMIMAJOR_AXIS":"6925.357","CENTER_NAME":"EARTH","BSTAR":"0.00008639500000","TLE_LINE1":"1 46791U 20074BE  21363.50356473  .00001005  00000-0  86395-4 0  9999","OBJECT_ID":"2020-074BE","PERIOD":"95.592","REV_AT_EPOCH":"6556","MEAN_ELEMENT_THEORY":"SGP4","RA_OF_ASC_NODE":"355.3804","SITE":"AFETR","LAUNCH_DATE":"2020-10-24","FILE":"3255138","TLE_LINE2":"2 46791  53.0539 355.3804 0001650  58.1039 302.0110 15.06397148 65563","OBJECT_TYPE":"PAYLOAD","REF_FRAME":"TEME","ECCENTRICITY":"0.00016500","GP_ID":"192720805","EPOCH":"2021-12-29T12:05:07.992672","PERIAPSIS":"546.080","MEAN_ANOMALY":"302.0110","ARG_OF_PERICENTER":"58.1039","DECAY_DATE":null,"OBJECT_NAME":"STARLINK-1933","COUNTRY_CODE":"US","ELEMENT_SET_NO":"999","MEAN_MOTION_DDOT":"0.0000000000000","NORAD_CAT_ID":"46791","RCS_SIZE":"LARGE","MEAN_MOTION":"15.06397148","EPHEMERIS_TYPE":"0","MEAN_MOTION_DOT":"0.00001005","TIME_SYSTEM":"UTC"},{"PERIAPSIS":"546.044","GP_ID":"192714169","EPOCH":"2021-12-29T09:32:31.771680","ECCENTRICITY":"0.00016630","REF_FRAME":"TEME","OBJECT_TYPE":"PAYLOAD","TLE_LINE2":"2 46792  53.0540 345.8540 0001663  63.1683 296.9476 15.06405894 66017","FILE":"3254971","MEAN_MOTION_DOT":"0.00001812","TIME_SYSTEM":"UTC","EPHEMERIS_TYPE":"0","MEAN_MOTION":"15.06405894","RCS_SIZE":"LARGE","NORAD_CAT_ID":"46792","MEAN_MOTION_DDOT":"0.0000000000000","ELEMENT_SET_NO":"999","COUNTRY_CODE":"US","OBJECT_NAME":"STARLINK-1934","DECAY_DATE":null,"ARG_OF_PERICENTER":"63.1683","MEAN_ANOMALY":"296.9476","SEMIMAJOR_AXIS":"6925.330","INCLINATION":"53.0540","CLASSIFICATION_TYPE":"U","APOAPSIS":"548.347","LAUNCH_DATE":"2020-10-24","SITE":"AFETR","RA_OF_ASC_NODE":"345.8540","MEAN_ELEMENT_THEORY":"SGP4","REV_AT_EPOCH":"6601","PERIOD":"95.592","OBJECT_ID":"2020-074BF","TLE_LINE1":"1 46792U 20074BF  21363.39758995  .00001812  00000-0  14050-3 0  9996","CENTER_NAME":"EARTH","BSTAR":"0.00014050000000"},{"ELEMENT_SET_NO":"999","COUNTRY_CODE":"US","MEAN_MOTION_DDOT":"0.0000000000000","NORAD_CAT_ID":"46793","RCS_SIZE":"LARGE","MEAN_MOTION":"15.06404126","EPHEMERIS_TYPE":"0","TIME_SYSTEM":"UTC","MEAN_MOTION_DOT":"0.00001544","MEAN_ANOMALY":"297.5599","ARG_OF_PERICENTER":"62.5547","DECAY_DATE":null,"OBJECT_NAME":"STARLINK-1941","ECCENTRICITY":"0.00015500","EPOCH":"2021-12-29T22:57:58.850496","GP_ID":"192743955","PERIAPSIS":"546.127","TLE_LINE2":"2 46793  53.0547 353.3511 0001550  62.5547 297.5599 15.06404126 65956","FILE":"3255236","OBJECT_TYPE":"PAYLOAD","REF_FRAME":"TEME","RA_OF_ASC_NODE":"353.3511","LAUNCH_DATE":"2020-10-24","SITE":"AFETR","CENTER_NAME":"EARTH","BSTAR":"0.00012253000000","TLE_LINE1":"1 46793U 20074BG  21363.95693114  .00001544  00000-0  12253-3 0  9995","OBJECT_ID":"2020-074BG","PERIOD":"95.592","REV_AT_EPOCH":"6595","MEAN_ELEMENT_THEORY":"SGP4","APOAPSIS":"548.274","CLASSIFICATION_TYPE":"U","INCLINATION":"53.0547","SEMIMAJOR_AXIS":"6925.336"},{"TLE_LINE2":"2 46794  53.0550 355.4036 0001686  61.8943 298.2216 15.06407728 65896","FILE":"3254971","REF_FRAME":"TEME","OBJECT_TYPE":"PAYLOAD","EPOCH":"2021-12-29T11:59:49.235424","GP_ID":"192713670","ECCENTRICITY":"0.00016860","PERIAPSIS":"546.022","DECAY_DATE":null,"ARG_OF_PERICENTER":"61.8943","MEAN_ANOMALY":"298.2216","OBJECT_NAME":"STARLINK-1942","MEAN_MOTION_DDOT":"0.0000000000000","ELEMENT_SET_NO":"999","COUNTRY_CODE":"US","TIME_SYSTEM":"UTC","MEAN_MOTION_DOT":"0.00004005","MEAN_MOTION":"15.06407728","EPHEMERIS_TYPE":"0","RCS_SIZE":"LARGE","NORAD_CAT_ID":"46794","CLASSIFICATION_TYPE":"U","APOAPSIS":"548.357","SEMIMAJOR_AXIS":"6925.325","INCLINATION":"53.0550","BSTAR":"0.00028754000000","CENTER_NAME":"EARTH","MEAN_ELEMENT_THEORY":"SGP4","REV_AT_EPOCH":"6589","PERIOD":"95.592","OBJECT_ID":"2020-074BH","TLE_LINE1":"1 46794U 20074BH  21363.49987541  .00004005  00000-0  28754-3 0  9993","RA_OF_ASC_NODE":"355.4036","SITE":"AFETR","LAUNCH_DATE":"2020-10-24"},{"ELEMENT_SET_NO":"999","COUNTRY_CODE":"US","MEAN_MOTION_DDOT":"0.0000000000000","RCS_SIZE":"LARGE","NORAD_CAT_ID":"46796","MEAN_MOTION_DOT":"0.00000461","TIME_SYSTEM":"UTC","MEAN_MOTION":"15.06398368","EPHEMERIS_TYPE":"0","MEAN_ANOMALY":"296.7496","DECAY_DATE":null,"ARG_OF_PERICENTER":"63.3660","OBJECT_NAME":"STARLINK-1944","ECCENTRICITY":"0.00016230","EPOCH":"2021-12-29T22:32:45.981312","GP_ID":"192744455","PERIAPSIS":"546.095","FILE":"3255236","TLE_LINE2":"2 46796  53.0555 343.4252 0001623  63.3660 296.7496 15.06398368 66099","OBJECT_TYPE":"PAYLOAD","REF_FRAME":"TEME","RA_OF_ASC_NODE":"343.4252","SITE":"AFETR","LAUNCH_DATE":"2020-10-24","CENTER_NAME":"EARTH","BSTAR":"0.00004981700000","OBJECT_ID":"2020-074BK","TLE_LINE1":"1 46796U 20074BK  21363.93942108  .00000461  00000-0  49817-4 0  9990","MEAN_ELEMENT_THEORY":"SGP4","PERIOD":"95.592","REV_AT_EPOCH":"6609","APOAPSIS":"548.343","CLASSIFICATION_TYPE":"U","SEMIMAJOR_AXIS":"6925.354","INCLINATION":"53.0555"},{"GP_ID":"192714670","EPOCH":"2021-12-29T05:46:28.569216","ECCENTRICITY":"0.00035710","PERIAPSIS":"391.304","TLE_LINE2":"2 46797  53.0550 297.1330 0003571  91.5222 268.6199 15.57905194 66699","FILE":"3254971","REF_FRAME":"TEME","OBJECT_TYPE":"PAYLOAD","MEAN_MOTION_DDOT":"0.0000000000000","ELEMENT_SET_NO":"999","COUNTRY_CODE":"US","MEAN_MOTION":"15.57905194","EPHEMERIS_TYPE":"0","MEAN_MOTION_DOT":"0.00034007","TIME_SYSTEM":"UTC","RCS_SIZE":"LARGE","NORAD_CAT_ID":"46797","ARG_OF_PERICENTER":"91.5222","DECAY_DATE":null,"MEAN_ANOMALY":"268.6199","OBJECT_NAME":"STARLINK-1947","CLASSIFICATION_TYPE":"U","APOAPSIS":"396.141","INCLINATION":"53.0550","SEMIMAJOR_AXIS":"6771.858","RA_OF_ASC_NODE":"297.1330","SITE":"AFETR","LAUNCH_DATE":"2020-10-24","BSTAR":"0.00045185000000","CENTER_NAME":"EARTH","REV_AT_EPOCH":"6669","PERIOD":"92.432","MEAN_ELEMENT_THEORY":"SGP4","TLE_LINE1":"1 46797U 20074BL  21363.24060844  .00034007  00000-0  45185-3 0  9999","OBJECT_ID":"2020-074BL"},{"INCLINATION":"53.0561","SEMIMAJOR_AXIS":"6925.365","APOAPSIS":"548.743","CLASSIFICATION_TYPE":"U","TLE_LINE1":"1 46798U 20074BM  21363.50676900  .00000827  00000-0  74419-4 0  9991","OBJECT_ID":"2020-074BM","REV_AT_EPOCH":"6542","PERIOD":"95.592","MEAN_ELEMENT_THEORY":"SGP4","CENTER_NAME":"EARTH","BSTAR":"0.00007441900000","LAUNCH_DATE":"2020-10-24","SITE":"AFETR","RA_OF_ASC_NODE":"10.3726","OBJECT_TYPE":"PAYLOAD","REF_FRAME":"TEME","FILE":"3255141","TLE_LINE2":"2 46798  53.0561  10.3726 0002185  57.5929 302.5271 15.06394698 65426","PERIAPSIS":"545.717","ECCENTRICITY":"0.00021850","GP_ID":"192720858","EPOCH":"2021-12-29T12:09:44.841600","OBJECT_NAME":"STARLINK-1948","MEAN_ANOMALY":"302.5271","ARG_OF_PERICENTER":"57.5929","DECAY_DATE":null,"NORAD_CAT_ID":"46798","RCS_SIZE":"LARGE","MEAN_MOTION":"15.06394698","EPHEMERIS_TYPE":"0","MEAN_MOTION_DOT":"0.00000827","TIME_SYSTEM":"UTC","ELEMENT_SET_NO":"999","COUNTRY_CODE":"US","MEAN_MOTION_DDOT":"0.0000000000000"},{"TLE_LINE1":"1 47122U 20088A   21363.85925255  .00000922  00000-0  80784-4 0  9994","OBJECT_ID":"2020-088A","PERIOD":"95.592","REV_AT_EPOCH":"6110","MEAN_ELEMENT_THEORY":"SGP4","CENTER_NAME":"EARTH","BSTAR":"0.00008078400000","LAUNCH_DATE":"2020-11-25","SITE":"AFETR","RA_OF_ASC_NODE":"333.7789","INCLINATION":"53.0551","SEMIMAJOR_AXIS":"6925.348","APOAPSIS":"548.474","CLASSIFICATION_TYPE":"U","OBJECT_NAME":"STARLINK-1777","MEAN_ANOMALY":"304.3914","ARG_OF_PERICENTER":"55.7247","DECAY_DATE":null,"RCS_SIZE":"LARGE","NORAD_CAT_ID":"47122","MEAN_MOTION":"15.06400076","EPHEMERIS_TYPE":"0","MEAN_MOTION_DOT":"0.00000922","TIME_SYSTEM":"UTC","COUNTRY_CODE":"US","ELEMENT_SET_NO":"999","MEAN_MOTION_DDOT":"0.0000000000000","OBJECT_TYPE":"PAYLOAD","REF_FRAME":"TEME","FILE":"3255236","TLE_LINE2":"2 47122  53.0551 333.7789 0001820  55.7247 304.3914 15.06400076 61109","PERIAPSIS":"545.953","ECCENTRICITY":"0.00018200","EPOCH":"2021-12-29T20:37:19.420320","GP_ID":"192744745"}];
